CCSDS_OMM_VERS = 2.0
CREATION_DATE  = 
ORIGINATOR     = 

OBJECT_NAME    = 1998-067XK
OBJECT_ID      = 1998-067XK
CENTER_NAME    = EARTH
REF_FRAME      = TEME
TIME_SYSTEM    = UTC
MEAN_ELEMENT_THEORY = SGP/SGP4

EPOCH          = 2026-01-24T17:45:13.187808
MEAN_MOTION    = 15.77428239
ECCENTRICITY   = .00042277
INCLINATION    = 51.6251
RA_OF_ASC_NODE = 277.4071
ARG_OF_PERICENTER = 143.0939
MEAN_ANOMALY   = 217.0353

EPHEMERIS_TYPE = 0
CLASSIFICATION_TYPE = U
NORAD_CAT_ID   = 65731
ELEMENT_SET_NO = 999
REV_AT_EPOCH   = 1990
BSTAR          = .11894462E-2
MEAN_MOTION_DOT = .20549E-2
MEAN_MOTION_DDOT = 0

CCSDS_OMM_VERS = 2.0
CREATION_DATE  = 
ORIGINATOR     = 

OBJECT_NAME    = RSP-03
OBJECT_ID      = 1998-067XL
CENTER_NAME    = EARTH
REF_FRAME      = TEME
TIME_SYSTEM    = UTC
MEAN_ELEMENT_THEORY = SGP/SGP4

EPOCH          = 2026-01-24T19:08:13.721856
MEAN_MOTION    = 15.86292078
ECCENTRICITY   = .00054416
INCLINATION    = 51.6211
RA_OF_ASC_NODE = 274.7488
ARG_OF_PERICENTER = 161.0679
MEAN_ANOMALY   = 199.0528

EPHEMERIS_TYPE = 0
CLASSIFICATION_TYPE = U
NORAD_CAT_ID   = 65732
ELEMENT_SET_NO = 999
REV_AT_EPOCH   = 1995
BSTAR          = .14626354E-2
MEAN_MOTION_DOT = .390472E-2
MEAN_MOTION_DDOT = 0

CCSDS_OMM_VERS = 2.0
CREATION_DATE  = 
ORIGINATOR     = 

OBJECT_NAME    = YOTSUBA-KULOVER
OBJECT_ID      = 1998-067XN
CENTER_NAME    = EARTH
REF_FRAME      = TEME
TIME_SYSTEM    = UTC
MEAN_ELEMENT_THEORY = SGP/SGP4

EPOCH          = 2026-01-24T19:24:51.688512
MEAN_MOTION    = 15.67120222
ECCENTRICITY   = .0004393
INCLINATION    = 51.6265
RA_OF_ASC_NODE = 282.3913
ARG_OF_PERICENTER = 158.7964
MEAN_ANOMALY   = 201.3215

EPHEMERIS_TYPE = 0
CLASSIFICATION_TYPE = U
NORAD_CAT_ID   = 65941
ELEMENT_SET_NO = 999
REV_AT_EPOCH   = 1659
BSTAR          = .11069698E-2
MEAN_MOTION_DOT = .122057E-2
MEAN_MOTION_DDOT = 0

CCSDS_OMM_VERS = 2.0
CREATION_DATE  = 
ORIGINATOR     = 

OBJECT_NAME    = BOTAN
OBJECT_ID      = 1998-067XP
CENTER_NAME    = EARTH
REF_FRAME      = TEME
TIME_SYSTEM    = UTC
MEAN_ELEMENT_THEORY = SGP/SGP4

EPOCH          = 2026-01-24T18:54:08.154432
MEAN_MOTION    = 15.75992958
ECCENTRICITY   = .00053632
INCLINATION    = 51.6220
RA_OF_ASC_NODE = 279.9774
ARG_OF_PERICENTER = 167.3184
MEAN_ANOMALY   = 192.7951

EPHEMERIS_TYPE = 0
CLASSIFICATION_TYPE = U
NORAD_CAT_ID   = 65942
ELEMENT_SET_NO = 999
REV_AT_EPOCH   = 1662
BSTAR          = .15183628E-2
MEAN_MOTION_DOT = .247627E-2
MEAN_MOTION_DDOT = 0

CCSDS_OMM_VERS = 2.0
CREATION_DATE  = 
ORIGINATOR     = 

OBJECT_NAME    = E-KAGAKU-1
OBJECT_ID      = 1998-067XQ
CENTER_NAME    = EARTH
REF_FRAME      = TEME
TIME_SYSTEM    = UTC
MEAN_ELEMENT_THEORY = SGP/SGP4

EPOCH          = 2026-01-24T17:53:10.011264
MEAN_MOTION    = 15.67057145
ECCENTRICITY   = .0003092
INCLINATION    = 51.6279
RA_OF_ASC_NODE = 282.7241
ARG_OF_PERICENTER = 165.0419
MEAN_ANOMALY   = 195.0669

EPHEMERIS_TYPE = 0
CLASSIFICATION_TYPE = U
NORAD_CAT_ID   = 65943
ELEMENT_SET_NO = 999
REV_AT_EPOCH   = 1658
BSTAR          = .10761698E-2
MEAN_MOTION_DOT = .118261E-2
MEAN_MOTION_DDOT = 0

CCSDS_OMM_VERS = 2.0
CREATION_DATE  = 
ORIGINATOR     = 

OBJECT_NAME    = HRC MONOBLOCK CAMERA
OBJECT_ID      = 1998-067XR
CENTER_NAME    = EARTH
REF_FRAME      = TEME
TIME_SYSTEM    = UTC
MEAN_ELEMENT_THEORY = SGP/SGP4

EPOCH          = 2026-01-24T18:03:02.246976
MEAN_MOTION    = 15.57665609
ECCENTRICITY   = .00006669
INCLINATION    = 51.6291
RA_OF_ASC_NODE = 286.5154
ARG_OF_PERICENTER = 32.7434
MEAN_ANOMALY   = 327.3599

EPHEMERIS_TYPE = 0
CLASSIFICATION_TYPE = U
NORAD_CAT_ID   = 66052
ELEMENT_SET_NO = 999
REV_AT_EPOCH   = 1553
BSTAR          = .68383813E-3
MEAN_MOTION_DOT = .51429E-3
MEAN_MOTION_DDOT = 0

CCSDS_OMM_VERS = 2.0
CREATION_DATE  = 
ORIGINATOR     = 

OBJECT_NAME    = HTV-X1
OBJECT_ID      = 2025-241A
CENTER_NAME    = EARTH
REF_FRAME      = TEME
TIME_SYSTEM    = UTC
MEAN_ELEMENT_THEORY = SGP/SGP4

EPOCH          = 2026-01-24T19:40:05.975040
MEAN_MOTION    = 15.48158028
ECCENTRICITY   = .00110271
INCLINATION    = 51.6323
RA_OF_ASC_NODE = 289.2130
ARG_OF_PERICENTER = 26.4083
MEAN_ANOMALY   = 333.7465

EPHEMERIS_TYPE = 0
CLASSIFICATION_TYPE = U
NORAD_CAT_ID   = 66174
ELEMENT_SET_NO = 999
REV_AT_EPOCH   = 51
BSTAR          = .32584332E-3
MEAN_MOTION_DOT = .17054E-3
MEAN_MOTION_DDOT = 0

CCSDS_OMM_VERS = 2.0
CREATION_DATE  = 
ORIGINATOR     = 

OBJECT_NAME    = SZ-21 MODULE
OBJECT_ID      = 2025-246C
CENTER_NAME    = EARTH
REF_FRAME      = TEME
TIME_SYSTEM    = UTC
MEAN_ELEMENT_THEORY = SGP/SGP4

EPOCH          = 2026-01-24T14:01:00.620544
MEAN_MOTION    = 15.65208053
ECCENTRICITY   = .00032059
INCLINATION    = 41.4751
RA_OF_ASC_NODE = 114.1792
ARG_OF_PERICENTER = 232.2838
MEAN_ANOMALY   = 127.7712

EPHEMERIS_TYPE = 0
CLASSIFICATION_TYPE = U
NORAD_CAT_ID   = 66515
ELEMENT_SET_NO = 999
REV_AT_EPOCH   = 1115
BSTAR          = .37964666E-3
MEAN_MOTION_DOT = .38549E-3
MEAN_MOTION_DDOT = 0

CCSDS_OMM_VERS = 2.0
CREATION_DATE  = 
ORIGINATOR     = 

OBJECT_NAME    = SHENZHOU-22
OBJECT_ID      = 2025-272A
CENTER_NAME    = EARTH
REF_FRAME      = TEME
TIME_SYSTEM    = UTC
MEAN_ELEMENT_THEORY = SGP/SGP4

EPOCH          = 2026-01-24T20:40:40.275264
MEAN_MOTION    = 15.61020753
ECCENTRICITY   = .0010029
INCLINATION    = 41.4667
RA_OF_ASC_NODE = 114.5606
ARG_OF_PERICENTER = 354.6584
MEAN_ANOMALY   = 5.4146

EPHEMERIS_TYPE = 0
CLASSIFICATION_TYPE = U
NORAD_CAT_ID   = 66645
ELEMENT_SET_NO = 999
REV_AT_EPOCH   = 26764
BSTAR          = .31240168E-3
MEAN_MOTION_DOT = .26833E-3
MEAN_MOTION_DDOT = 0

CCSDS_OMM_VERS = 2.0
CREATION_DATE  = 
ORIGINATOR     = 

OBJECT_NAME    = SOYUZ-MS 28
OBJECT_ID      = 2025-275A
CENTER_NAME    = EARTH
REF_FRAME      = TEME
TIME_SYSTEM    = UTC
MEAN_ELEMENT_THEORY = SGP/SGP4

EPOCH          = 2026-01-24T19:40:05.974176
MEAN_MOTION    = 15.48158028
ECCENTRICITY   = .0011027
INCLINATION    = 51.6323
RA_OF_ASC_NODE = 289.2130
ARG_OF_PERICENTER = 26.4083
MEAN_ANOMALY   = 333.7465

EPHEMERIS_TYPE = 0
CLASSIFICATION_TYPE = U
NORAD_CAT_ID   = 66664
ELEMENT_SET_NO = 999
REV_AT_EPOCH   = 54953
BSTAR          = .32584E-3
MEAN_MOTION_DOT = .17054E-3
MEAN_MOTION_DDOT = 0

CCSDS_OMM_VERS = 2.0
CREATION_DATE  = 
ORIGINATOR     = 

OBJECT_NAME    = DUPLEX
OBJECT_ID      = 1998-067XS
CENTER_NAME    = EARTH
REF_FRAME      = TEME
TIME_SYSTEM    = UTC
MEAN_ELEMENT_THEORY = SGP/SGP4

EPOCH          = 2026-01-24T22:33:57.516192
MEAN_MOTION    = 15.53137539
ECCENTRICITY   = .0001882
INCLINATION    = 51.6306
RA_OF_ASC_NODE = 287.7708
ARG_OF_PERICENTER = 54.3804
MEAN_ANOMALY   = 305.7361

EPHEMERIS_TYPE = 0
CLASSIFICATION_TYPE = U
NORAD_CAT_ID   = 66906
ELEMENT_SET_NO = 999
REV_AT_EPOCH   = 832
BSTAR          = .55195E-3
MEAN_MOTION_DOT = .34926E-3
MEAN_MOTION_DDOT = 0

CCSDS_OMM_VERS = 2.0
CREATION_DATE  = 
ORIGINATOR     = 

OBJECT_NAME    = 1998-067XT
OBJECT_ID      = 1998-067XT
CENTER_NAME    = EARTH
REF_FRAME      = TEME
TIME_SYSTEM    = UTC
MEAN_ELEMENT_THEORY = SGP/SGP4

EPOCH          = 2026-01-24T17:33:59.573664
MEAN_MOTION    = 15.58344051
ECCENTRICITY   = .0003231
INCLINATION    = 51.6289
RA_OF_ASC_NODE = 287.8796
ARG_OF_PERICENTER = 118.4461
MEAN_ANOMALY   = 241.6857

EPHEMERIS_TYPE = 0
CLASSIFICATION_TYPE = U
NORAD_CAT_ID   = 66907
ELEMENT_SET_NO = 999
REV_AT_EPOCH   = 830
BSTAR          = .13425305E-2
MEAN_MOTION_DOT = .104793E-2
MEAN_MOTION_DDOT = 0

