1998-067XK              
1 65731U 98067XK  26024.73973597  .00205490  00000+0  11894-2 0  9990
2 65731  51.6251 277.4071 0004227 143.0939 217.0353 15.77428239 19904
RSP-03                  
1 65732U 98067XL  26024.79738104  .00390472  00000+0  14626-2 0  9991
2 65732  51.6211 274.7488 0005441 161.0679 199.0528 15.86292078 19951
YOTSUBA-KULOVER         
1 65941U 98067XN  26024.80893158  .00122057  00000+0  11070-2 0  9998
2 65941  51.6265 282.3913 0004393 158.7964 201.3215 15.67120222 16592
BOTAN                   
1 65942U 98067XP  26024.78759438  .00247627  00000+0  15184-2 0  9999
2 65942  51.6220 279.9774 0005363 167.3184 192.7951 15.75992958 16625
E-KAGAKU-1              
1 65943U 98067XQ  26024.74525476  .00118261  00000+0  10762-2 0  9997
2 65943  51.6279 282.7241 0003092 165.0419 195.0669 15.67057145 16582
HRC MONOBLOCK CAMERA    
1 66052U 98067XR  26024.75210934  .00051429  00000+0  68384-3 0  9996
2 66052  51.6291 286.5154 0000666  32.7434 327.3599 15.57665609 15539
HTV-X1                  
1 66174U 25241A   26024.81951360  .00017054  00000+0  32584-3 0  9996
2 66174  51.6323 289.2130 0011027  26.4083 333.7465 15.48158028   514
SZ-21 MODULE            
1 66515U 25246C   26024.58403496  .00038549  00000+0  37965-3 0  9996
2 66515  41.4751 114.1792 0003205 232.2838 127.7712 15.65208053 11150
SHENZHOU-22             
1 66645U 25272A   26024.86157726  .00026833  00000+0  31240-3 0  9995
2 66645  41.4667 114.5606 0010029 354.6584   5.4146 15.61020753267642
SOYUZ-MS 28             
1 66664U 25275A   26024.81951359  .00017054  00000+0  32584-3 0  9995
2 66664  51.6323 289.2130 0011027  26.4083 333.7465 15.48158028549538
DUPLEX                  
1 66906U 98067XS  26024.94024903  .00034926  00000+0  55195-3 0  9993
2 66906  51.6306 287.7708 0001882  54.3804 305.7361 15.53137539  8322
1998-067XT              
1 66907U 98067XT  26024.73193951  .00104793  00000+0  13425-2 0  9990
2 66907  51.6289 287.8796 0003231 118.4461 241.6857 15.58344051  8302
